[{"OBJECT_NAME":"GEESAT-5 04","OBJECT_ID":"2025-201D","EPOCH":"2026-03-09T16:43:55.713504","MEAN_MOTION":14.83246281,"ECCENTRICITY":0.00110249,"INCLINATION":49.9844,"RA_OF_ASC_NODE":141.1656,"ARG_OF_PERICENTER":244.2414,"MEAN_ANOMALY":115.7387,"EPHEMERIS_TYPE":0,"CLASSIFICATION_TYPE":"U","NORAD_CAT_ID":65553,"ELEMENT_SET_NO":999,"REV_AT_EPOCH":2701,"BSTAR":0.00027420324,"MEAN_MOTION_DOT":2.041e-5,"MEAN_MOTION_DDOT":0},{"OBJECT_NAME":"TITAN 3C TRANSTAGE DEB","OBJECT_ID":"1965-082QJ","EPOCH":"2026-03-09T21:48:44.529408","MEAN_MOTION":14.78635581,"ECCENTRICITY":0.00241297,"INCLINATION":32.2286,"RA_OF_ASC_NODE":290.9393,"ARG_OF_PERICENTER":266.6123,"MEAN_ANOMALY":93.1768,"EPHEMERIS_TYPE":0,"CLASSIFICATION_TYPE":"U","NORAD_CAT_ID":3488,"ELEMENT_SET_NO":999,"REV_AT_EPOCH":18321,"BSTAR":0.00028216073,"MEAN_MOTION_DOT":2.157e-5,"MEAN_MOTION_DDOT":0}]
